[{"OBJECT_NAME":"STARLINK-3533","OBJECT_ID":"2022-016B","EPOCH":"2026-03-09T22:27:09.819648","MEAN_MOTION":15.08833144,"ECCENTRICITY":0.00016026,"INCLINATION":53.22,"RA_OF_ASC_NODE":328.0255,"ARG_OF_PERICENTER":100.2594,"MEAN_ANOMALY":259.8579,"EPHEMERIS_TYPE":0,"CLASSIFICATION_TYPE":"U","NORAD_CAT_ID":51715,"ELEMENT_SET_NO":999,"REV_AT_EPOCH":22459,"BSTAR":-5.5116975e-5,"MEAN_MOTION_DOT":-1.165e-5,"MEAN_MOTION_DDOT":0},{"OBJECT_NAME":"NANOFF A","OBJECT_ID":"2023-185T","EPOCH":"2026-03-09T23:34:34.415328","MEAN_MOTION":15.11542977,"ECCENTRICITY":0.00086783,"INCLINATION":97.5359,"RA_OF_ASC_NODE":137.8345,"ARG_OF_PERICENTER":292.8968,"MEAN_ANOMALY":67.1346,"EPHEMERIS_TYPE":0,"CLASSIFICATION_TYPE":"U","NORAD_CAT_ID":58810,"ELEMENT_SET_NO":999,"REV_AT_EPOCH":11805,"BSTAR":0.00027314844,"MEAN_MOTION_DOT":4.57e-5,"MEAN_MOTION_DDOT":0}]
